{
  "links" : {
    "next" : "https://api.nasa.gov/neo/rest/v1/feed?start_date=2009-11-23&end_date=2009-11-23&detailed=true&api_key=t0TVs3DtDT2H8Oy2Zy8m2eVrNsAVKAexjcZXUckd",
    "prev" : "https://api.nasa.gov/neo/rest/v1/feed?start_date=2009-11-21&end_date=2009-11-21&detailed=true&api_key=t0TVs3DtDT2H8Oy2Zy8m2eVrNsAVKAexjcZXUckd",
    "self" : "https://api.nasa.gov/neo/rest/v1/feed?start_date=2009-11-22&end_date=2009-11-22&detailed=true&api_key=t0TVs3DtDT2H8Oy2Zy8m2eVrNsAVKAexjcZXUckd"
  },
  "element_count" : 14,
  "near_earth_objects" : {
    "2009-11-22" : [ {
      "links" : {
        "self" : "https://api.nasa.gov/neo/rest/v1/neo/3471590?api_key=t0TVs3DtDT2H8Oy2Zy8m2eVrNsAVKAexjcZXUckd"
      },
      "neo_reference_id" : "3471590",
      "name" : "(2009 TK12)",
      "nasa_jpl_url" : "http://ssd.jpl.nasa.gov/sbdb.cgi?sstr=3471590",
      "absolute_magnitude_h" : 20.6,
      "estimated_diameter" : {
        "kilometers" : {
          "estimated_diameter_min" : 0.2016299194,
          "estimated_diameter_max" : 0.4508582062
        },
        "meters" : {
          "estimated_diameter_min" : 201.6299194428,
          "estimated_diameter_max" : 450.8582061718
        },
        "miles" : {
          "estimated_diameter_min" : 0.1252869847,
          "estimated_diameter_max" : 0.2801502144
        },
        "feet" : {
          "estimated_diameter_min" : 661.5155049046,
          "estimated_diameter_max" : 1479.1936371367
        }
      },
      "is_potentially_hazardous_asteroid" : true,
      "close_approach_data" : [ {
        "close_approach_date" : "2009-11-22",
        "epoch_date_close_approach" : 1258876800000,
        "relative_velocity" : {
          "kilometers_per_second" : "13.8626485723",
          "kilometers_per_hour" : "49905.5348601151",
          "miles_per_hour" : "31009.3585912754"
        },
        "miss_distance" : {
          "astronomical" : "0.0710033808",
          "lunar" : "27.6203136444",
          "kilometers" : "10621954",
          "miles" : "6600176.5"
        },
        "orbiting_body" : "Earth"
      } ],
      "orbital_data" : {
        "orbit_id" : "36",
        "orbit_determination_date" : "2017-04-06 08:59:36",
        "orbit_uncertainty" : "1",
        "minimum_orbit_intersection" : ".013478",
        "jupiter_tisserand_invariant" : "3.993",
        "epoch_osculation" : "2458000.5",
        "eccentricity" : ".5846063873955878",
        "semi_major_axis" : "1.695616257509581",
        "inclination" : "3.838233176049531",
        "ascending_node_longitude" : "245.7174147831241",
        "orbital_period" : "806.4729119236935",
        "perihelion_distance" : ".704348162797678",
        "perihelion_argument" : "245.3328538973312",
        "aphelion_distance" : "2.686884352221483",
        "perihelion_time" : "2457622.043127119873",
        "mean_anomaly" : "168.9386862503037",
        "mean_motion" : ".4463882105367754",
        "equinox" : "J2000"
      }
    }, {
      "links" : {
        "self" : "https://api.nasa.gov/neo/rest/v1/neo/3476779?api_key=t0TVs3DtDT2H8Oy2Zy8m2eVrNsAVKAexjcZXUckd"
      },
      "neo_reference_id" : "3476779",
      "name" : "(2009 WF)",
      "nasa_jpl_url" : "http://ssd.jpl.nasa.gov/sbdb.cgi?sstr=3476779",
      "absolute_magnitude_h" : 19.8,
      "estimated_diameter" : {
        "kilometers" : {
          "estimated_diameter_min" : 0.2914439045,
          "estimated_diameter_max" : 0.6516883822
        },
        "meters" : {
          "estimated_diameter_min" : 291.4439045349,
          "estimated_diameter_max" : 651.6883821679
        },
        "miles" : {
          "estimated_diameter_min" : 0.1810947904,
          "estimated_diameter_max" : 0.4049402617
        },
        "feet" : {
          "estimated_diameter_min" : 956.1808197541,
          "estimated_diameter_max" : 2138.0853117517
        }
      },
      "is_potentially_hazardous_asteroid" : false,
      "close_approach_data" : [ {
        "close_approach_date" : "2009-11-22",
        "epoch_date_close_approach" : 1258876800000,
        "relative_velocity" : {
          "kilometers_per_second" : "8.8787218764",
          "kilometers_per_hour" : "31963.3987549708",
          "miles_per_hour" : "19860.8129652761"
        },
        "miss_distance" : {
          "astronomical" : "0.2644259033",
          "lunar" : "102.8616790771",
          "kilometers" : "39557552",
          "miles" : "24579924"
        },
        "orbiting_body" : "Earth"
      } ],
      "orbital_data" : {
        "orbit_id" : "33",
        "orbit_determination_date" : "2017-04-06 08:59:10",
        "orbit_uncertainty" : "0",
        "minimum_orbit_intersection" : ".0892885",
        "jupiter_tisserand_invariant" : "4.694",
        "epoch_osculation" : "2458000.5",
        "eccentricity" : ".3284626755785926",
        "semi_major_axis" : "1.385183885226632",
        "inclination" : "15.80495670468545",
        "ascending_node_longitude" : "269.1346066464539",
        "orbital_period" : "595.4695696316431",
        "perihelion_distance" : ".9302026801167422",
        "perihelion_argument" : "76.64890141449254",
        "aphelion_distance" : "1.840165090336522",
        "perihelion_time" : "2458059.307270755544",
        "mean_anomaly" : "324.4471883171258",
        "mean_motion" : ".6045648986273062",
        "equinox" : "J2000"
      }
    }, {
      "links" : {
        "self" : "https://api.nasa.gov/neo/rest/v1/neo/3477575?api_key=t0TVs3DtDT2H8Oy2Zy8m2eVrNsAVKAexjcZXUckd"
      },
      "neo_reference_id" : "3477575",
      "name" : "(2009 WK1)",
      "nasa_jpl_url" : "http://ssd.jpl.nasa.gov/sbdb.cgi?sstr=3477575",
      "absolute_magnitude_h" : 27.2,
      "estimated_diameter" : {
        "kilometers" : {
          "estimated_diameter_min" : 0.0096506147,
          "estimated_diameter_max" : 0.0215794305
        },
        "meters" : {
          "estimated_diameter_min" : 9.6506146958,
          "estimated_diameter_max" : 21.5794304844
        },
        "miles" : {
          "estimated_diameter_min" : 0.0059966121,
          "estimated_diameter_max" : 0.0134088323
        },
        "feet" : {
          "estimated_diameter_min" : 31.6621227185,
          "estimated_diameter_max" : 70.7986587106
        }
      },
      "is_potentially_hazardous_asteroid" : false,
      "close_approach_data" : [ {
        "close_approach_date" : "2009-11-22",
        "epoch_date_close_approach" : 1258876800000,
        "relative_velocity" : {
          "kilometers_per_second" : "4.8657175394",
          "kilometers_per_hour" : "17516.5831417496",
          "miles_per_hour" : "10884.1235638277"
        },
        "miss_distance" : {
          "astronomical" : "0.0308213506",
          "lunar" : "11.9895057678",
          "kilometers" : "4610808.5",
          "miles" : "2865023.5"
        },
        "orbiting_body" : "Earth"
      } ],
      "orbital_data" : {
        "orbit_id" : "8",
        "orbit_determination_date" : "2017-04-06 08:59:10",
        "orbit_uncertainty" : "7",
        "minimum_orbit_intersection" : ".0303314",
        "jupiter_tisserand_invariant" : "4.279",
        "epoch_osculation" : "2458000.5",
        "eccentricity" : ".3673504604825888",
        "semi_major_axis" : "1.601857568878729",
        "inclination" : "3.276760351038749",
        "ascending_node_longitude" : "233.4527866600156",
        "orbital_period" : "740.5157046165223",
        "perihelion_distance" : "1.013414453323608",
        "perihelion_argument" : "195.8552735987582",
        "aphelion_distance" : "2.190300684433851",
        "perihelion_time" : "2458126.145359899068",
        "mean_anomaly" : "298.9177983914763",
        "mean_motion" : ".4861476910694646",
        "equinox" : "J2000"
      }
    } ]
  }
}